{"version": 0.6, "generator": "Overpass API 0.7.62.8 e802775f", "osm3s": {"timestamp_osm_base": "2026-01-07T14:38:45Z", "copyright": "The data included in this document is from www.openstreetmap.org. The data is made available under ODbL."}, "elements": [{"type": "node", "id": 340493077, "lat": 45.5342918, "lon": 9.2911363, "tags": {"description": "Area STIBM: Mi3", "name": "Cologno Nord", "network": "STIBM", "network:wikidata": "Q65125405", "operator": "ATM", "public_transport": "station", "railway": "station", "start_date": "1981", "station": "subway", "wheelchair": "yes", "wikidata": "Q2984111", "wikimedia_commons": "Category:Cologno Nord station (Milan metro)", "wikipedia": "it:Cologno Nord"}}, {"type": "node", "id": 340494761, "lat": 45.5275053, "lon": 9.2829619, "tags": {"description": "Area STIBM: Mi3", "name": "Cologno Centro", "network": "STIBM", "network:wikidata": "Q65125405", "operator": "ATM", "public_transport": "station", "railway": "station", "start_date": "1981", "station": "subway", "wheelchair": "no", "wikidata": "Q2984108", "wikimedia_commons": "Category:Cologno Centro station (Milan metro)", "wikipedia": "it:Cologno Centro"}}, {"type": "node", "id": 344552615, "lat": 45.5197936, "lon": 9.0873804, "tags": {"description": "Area STIBM: Mi3", "name": "Rho Fieramilano", "network": "STIBM", "network:wikidata": "Q65125405", "old_name": "Rho-Fiera", "operator": "ATM", "operator:wikidata": "Q381955", "public_transport": "station", "railway": "station", "start_date": "2005", "station": "subway", "wheelchair": "yes", "wikidata": "Q1087032", "wikipedia": "it:Rho Fieramilano (metropolitana di Milano)"}}, {"type": "node", "id": 441109563, "lat": 45.5055437, "lon": 9.1795675, "tags": {"description": "Area STIBM: Mi1", "name": "Dergano", "network": "STIBM", "network:wikidata": "Q65125405", "operator": "ATM", "operator:wikidata": "Q381955", "public_transport": "station", "railway": "station", "start_date": "2011-03-26", "station": "subway", "subway": "yes", "train": "yes", "wheelchair": "yes", "wikidata": "Q1088220", "wikipedia": "it:Dergano (metropolitana di Milano)"}}, {"type": "node", "id": 1164734238, "lat": 45.4094526, "lon": 9.1500362, "tags": {"description": "Area STIBM: Mi3", "name": "Assago Milanofiori Nord", "network": "STIBM", "network:wikidata": "Q65125405", "operator": "ATM", "operator:wikidata": "Q381955", "public_transport": "station", "railway": "station", "start_date": "2011", "station": "subway", "wheelchair": "yes", "wikidata": "Q1135945", "wikimedia_commons": "Category:Assago Milanofiori Nord station (Milan metro)", "wikipedia": "it:Assago Milanofiori Nord"}}, {"type": "node", "id": 1164736020, "lat": 45.4018117, "lon": 9.1455762, "tags": {"description": "Area STIBM: Mi3", "name": "Assago Milanofiori Forum", "network": "STIBM", "network:wikidata": "Q65125405", "operator": "ATM", "operator:wikidata": "Q381955", "platforms": "2", "public_transport": "station", "railway": "station", "start_date": "2011", "station": "subway", "train": "yes", "wheelchair": "yes", "wikidata": "Q1135973", "wikimedia_commons": "Category:Assago Milanofiori Forum station (Milan metro)", "wikipedia": "it:Assago Milanofiori Forum"}}, {"type": "node", "id": 1277834213, "lat": 45.5216145, "lon": 9.1682909, "tags": {"description": "Area STIBM: Mi1", "name": "Affori FN", "network": "STIBM", "network:wikidata": "Q65125405", "old_name": "Affori Nord", "operator": "ATM", "public_transport": "station", "railway": "station", "start_date": "2011-03-26", "station": "subway", "wheelchair": "yes", "wikidata": "Q1088225", "wikipedia": "it:Affori FN (metropolitana di Milano)"}}, {"type": "node", "id": 1558102008, "lat": 45.5483416, "lon": 9.2446633, "tags": {"construction": "station", "construction:railway": "station", "name": "Sesto Restellone", "station": "subway", "subway": "yes", "wikidata": "Q3958216", "wikipedia": "it:Sesto Restellone"}}, {"type": "node", "id": 2356329672, "lat": 45.5111613, "lon": 9.2606304, "tags": {"description": "Area STIBM: Mi1/Mi3", "name": "Cascina Gobba", "network": "STIBM", "network:wikidata": "Q65125405", "operator": "ATM", "operator:wikidata": "Q381955", "public_transport": "station", "railway": "station", "start_date": "1968", "station": "subway", "train": "yes", "wheelchair": "limited", "wikidata": "Q2258190", "wikimedia_commons": "Category:Cascina Gobba station (Milan metro)", "wikipedia": "it:Cascina Gobba"}}, {"type": "node", "id": 3935647345, "lat": 45.4835188, "lon": 9.1877146, "tags": {"description": "Area STIBM: Mi1", "name": "Garibaldi FS", "name:it": "Garibaldi FS", "name:ja": "\u30ac\u30ea\u30d0\u30eb\u30c7\u30a3", "network": "STIBM", "network:wikidata": "Q65125405", "operator": "ATM", "operator:wikidata": "Q381955", "platforms": "2", "public_transport": "station", "railway": "station", "start_date": "1971", "station": "subway", "subway": "yes", "train": "yes", "wheelchair": "limited", "wikidata": "Q1087026", "wikipedia": "it:Garibaldi FS (metropolitana di Milano)"}}, {"type": "node", "id": 4942466113, "lat": 45.4753258, "lon": 9.2058895, "tags": {"description": "Area STIBM: Mi1", "name": "Porta Venezia", "network": "STIBM", "network:wikidata": "Q65125405", "operator": "ATM", "operator:wikidata": "Q381955", "public_transport": "station", "railway": "station", "start_date": "1964", "station": "subway", "wheelchair": "limited", "wikidata": "Q936357", "wikipedia": "it:Porta Venezia (metropolitana di Milano)"}}, {"type": "node", "id": 5216248523, "lat": 45.4641385, "lon": 9.1885548, "tags": {"description": "Area STIBM: Mi1", "name": "Duomo", "name:it": "Duomo", "name:ja": "\u30c9\u30a5\u30aa\u30fc\u30e2", "network": "STIBM", "network:wikidata": "Q65125405", "operator": "ATM", "operator:wikidata": "Q381955", "public_transport": "station", "railway": "station", "start_date": "1990", "station": "subway", "subway": "yes", "train": "yes", "wheelchair": "yes", "wikidata": "Q2519375", "wikipedia": "it:Duomo (metropolitana di Milano)"}}, {"type": "node", "id": 5216255290, "lat": 45.5201965, "lon": 9.2749277, "tags": {"description": "Area STIBM: Mi3", "name": "Cologno Sud", "network": "STIBM", "network:wikidata": "Q65125405", "operator": "ATM", "public_transport": "station", "railway": "station", "start_date": "1981", "station": "subway", "wheelchair": "no", "wikidata": "Q2984112", "wikimedia_commons": "Category:Cologno Sud station (Milan metro)", "wikipedia": "it:Cologno Sud"}}, {"type": "node", "id": 7801411132, "lat": 45.4553979, "lon": 9.1129252, "tags": {"description": "Area STIBM: Mi1", "name": "Bisceglie", "network": "STIBM", "network:wikidata": "Q65125405", "operator": "ATM", "operator:wikidata": "Q381955", "public_transport": "station", "railway": "station", "start_date": "1992", "station": "subway", "subway": "yes", "train": "yes", "wheelchair": "yes", "wikidata": "Q2904609", "wikipedia": "it:Bisceglie (metropolitana di Milano)"}}, {"type": "node", "id": 8671865626, "lat": 45.4628618, "lon": 9.2765469}, {"type": "node", "id": 8671865627, "lat": 45.4630861, "lon": 9.2768746}, {"type": "node", "id": 8671865628, "lat": 45.4630856, "lon": 9.2769274}, {"type": "node", "id": 8671865629, "lat": 45.4628154, "lon": 9.2769286}, {"type": "node", "id": 8671865630, "lat": 45.4628179, "lon": 9.2766028}, {"type": "node", "id": 8671865633, "lat": 45.4630288, "lon": 9.2767905}, {"type": "node", "id": 8671865634, "lat": 45.4628843, "lon": 9.2765803}, {"type": "node", "id": 8671865635, "lat": 45.4630192, "lon": 9.277693}, {"type": "node", "id": 8671865636, "lat": 45.4627102, "lon": 9.2776913}, {"type": "node", "id": 8671865637, "lat": 45.4627092, "lon": 9.2780738}, {"type": "node", "id": 8671865638, "lat": 45.4630182, "lon": 9.2780755}, {"type": "node", "id": 8671865639, "lat": 45.462961, "lon": 9.2766877, "tags": {"level": "0", "name": "Linate Aeroporto", "railway": "subway_entrance", "wheelchair": "yes", "wikimedia_commons": "File:Linate Aeroporto M4, uscita Kiss&Ride.jpg"}}, {"type": "node", "id": 8701998021, "lat": 45.4368888, "lon": 9.1681331, "tags": {"description": "Area STIBM: Mi1", "name": "Famagosta", "network": "STIBM", "network:wikidata": "Q65125405", "operator": "ATM", "public_transport": "station", "railway": "station", "start_date": "1994", "station": "subway", "train": "yes", "wheelchair": "yes", "wikidata": "Q3064844", "wikimedia_commons": "Category:Famagosta station (Milan metro)", "wikipedia": "it:Famagosta (metropolitana di Milano)"}}, {"type": "node", "id": 8701998023, "lat": 45.430014, "lon": 9.1773223, "tags": {"description": "Area STIBM: Mi1", "name": "Abbiategrasso-Chiesa Rossa", "network": "STIBM", "network:wikidata": "Q65125405", "operator": "ATM", "public_transport": "station", "railway": "station", "short_name": "Abbiategrasso", "start_date": "2005", "station": "subway", "toilets": "yes", "wheelchair": "yes", "wikidata": "Q2820829", "wikimedia_commons": "Category:Piazza Abbiategrasso station (Milan metro)", "wikipedia": "it:Abbiategrasso (metropolitana di Milano)"}}, {"type": "node", "id": 8829246456, "lat": 45.4164208, "lon": 9.155602, "tags": {"name": "Cantalupa Basmetto", "operator": "ATM", "proposed": "station", "railway": "proposed", "station": "subway", "subway": "yes"}}, {"type": "node", "id": 8930319218, "lat": 45.4335776, "lon": 9.2380577, "tags": {"description": "Area STIBM: Mi1", "name": "Rogoredo FS", "network": "STIBM", "network:wikidata": "Q65125405", "operator": "ATM", "public_transport": "station", "railway": "station", "start_date": "1991", "station": "subway", "wheelchair": "yes", "wikidata": "Q1088801", "wikimedia_commons": "Category:Rogoredo FS station (Milan metro)", "wikipedia": "it:Rogoredo FS (metropolitana di Milano)"}}, {"type": "node", "id": 9836271854, "lat": 45.4746191, "lon": 9.1947419, "tags": {"description": "Area STIBM: Mi1", "name": "Turati", "name:it": "Turati", "name:ja": "\u30c8\u30a5\u30e9\u30fc\u30c6\u30a3", "network": "STIBM", "network:wikidata": "Q65125405", "operator": "ATM", "operator:wikidata": "Q381955", "public_transport": "station", "railway": "station", "start_date": "1990", "station": "subway", "subway": "yes", "train": "yes", "wheelchair": "yes", "wikidata": "Q2259340", "wikipedia": "it:Turati (metropolitana di Milano)"}}, {"type": "node", "id": 9836271855, "lat": 45.4700892, "lon": 9.1927671, "tags": {"description": "Area STIBM: Mi1", "name": "Montenapoleone", "name:it": "Montenapoleone", "name:ja": "\u30e2\u30f3\u30c6\u30ca\u30dd\u30ec\u30aa\u30fc\u30cd", "network": "STIBM", "network:wikidata": "Q65125405", "operator": "ATM", "operator:wikidata": "Q381955", "public_transport": "station", "railway": "station", "start_date": "1990", "station": "subway", "subway": "yes", "train": "yes", "wheelchair": "yes", "wikidata": "Q2258690", "wikipedia": "it:Montenapoleone (metropolitana di Milano)"}}, {"type": "node", "id": 9836271858, "lat": 45.4794372, "lon": 9.1979411, "tags": {"description": "Area STIBM: Mi1", "name": "Repubblica", "name:it": "Repubblica", "name:ja": "\u30ec\u30d7\u30c3\u30d6\u30ea\u30ab", "network": "STIBM", "network:wikidata": "Q65125405", "operator": "ATM", "operator:wikidata": "Q381955", "platforms": "2", "public_transport": "station", "railway": "station", "start_date": "1990", "station": "subway", "subway": "yes", "train": "yes", "wheelchair": "yes", "wikidata": "Q2258319", "wikipedia": "it:Repubblica (metropolitana di Milano)"}}, {"type": "node", "id": 9836271862, "lat": 45.4976899, "lon": 9.1850263, "tags": {"description": "Area STIBM: Mi1", "name": "Maciachini", "network": "STIBM", "network:wikidata": "Q65125405", "operator": "ATM", "operator:wikidata": "Q381955", "public_transport": "station", "railway": "station", "start_date": "2003", "station": "subway", "subway": "yes", "train": "yes", "wheelchair": "yes", "wikidata": "Q1088228", "wikipedia": "it:Maciachini (metropolitana di Milano)"}}, {"type": "node", "id": 9836271866, "lat": 45.4926642, "lon": 9.1928945, "tags": {"description": "Area STIBM: Mi1", "name": "Zara", "network": "STIBM", "network:wikidata": "Q65125405", "operator": "ATM", "operator:wikidata": "Q381955", "public_transport": "station", "railway": "station", "start_date": "2013", "station": "subway", "subway": "yes", "train": "yes", "wheelchair": "yes", "wikidata": "Q1088305", "wikipedia": "it:Zara (metropolitana di Milano)"}}, {"type": "node", "id": 9836271867, "lat": 45.4925839, "lon": 9.1928456, "tags": {"description": "Area STIBM: Mi1", "name": "Zara", "network": "STIBM", "network:wikidata": "Q65125405", "operator": "ATM", "operator:wikidata": "Q381955", "public_transport": "station", "railway": "station", "start_date": "1995", "station": "subway", "subway": "yes", "train": "yes", "wheelchair": "yes", "wikidata": "Q1088305", "wikipedia": "it:Zara (metropolitana di Milano)"}}, {"type": "node", "id": 9836271872, "lat": 45.48983, "lon": 9.2008456, "tags": {"description": "Area STIBM: Mi1", "name": "Sondrio", "network": "STIBM", "network:wikidata": "Q65125405", "operator": "ATM", "operator:wikidata": "Q381955", "public_transport": "station", "railway": "station", "start_date": "1991", "station": "subway", "subway": "yes", "train": "yes", "wheelchair": "yes", "wikidata": "Q937693", "wikipedia": "it:Sondrio (metropolitana di Milano)"}}, {"type": "node", "id": 9836271873, "lat": 45.4845016, "lon": 9.2032043, "tags": {"description": "Area STIBM: Mi1", "name": "Centrale FS", "name:it": "Centrale FS", "name:ja": "\u30c1\u30a7\u30f3\u30c8\u30e9\u30fc\u30ec", "network": "STIBM", "network:wikidata": "Q65125405", "operator": "ATM", "operator:wikidata": "Q381955", "public_transport": "station", "railway": "station", "start_date": "1970", "station": "subway", "subway": "yes", "train": "yes", "wheelchair": "yes", "wikidata": "Q2258125", "wikimedia_commons": "Category:Centrale_FS_station_(Milan_metro)", "wikipedia": "it:Centrale FS (metropolitana di Milano)"}}, {"type": "node", "id": 9836271874, "lat": 45.4848114, "lon": 9.2026336, "tags": {"description": "Area STIBM: Mi1", "name": "Centrale FS", "name:it": "Centrale FS", "name:ja": "\u30c1\u30a7\u30f3\u30c8\u30e9\u30fc\u30ec", "network": "STIBM", "network:wikidata": "Q65125405", "operator": "ATM", "operator:wikidata": "Q381955", "public_transport": "station", "railway": "station", "start_date": "1990", "station": "subway", "subway": "yes", "train": "yes", "wheelchair": "yes", "wikidata": "Q2258125", "wikimedia_commons": "Category:Centrale FS station (Milan metro)", "wikipedia": "it:Centrale FS (metropolitana di Milano)"}}, {"type": "node", "id": 9836271875, "lat": 45.5135394, "lon": 9.1739662, "tags": {"description": "Area STIBM: Mi1", "name": "Affori Centro", "network": "STIBM", "network:wikidata": "Q65125405", "operator": "ATM", "public_transport": "station", "railway": "station", "start_date": "2011-03-26", "station": "subway", "wheelchair": "yes", "wikidata": "Q1088237", "wikipedia": "it:Affori Centro"}}, {"type": "node", "id": 9836271878, "lat": 45.5281283, "lon": 9.1637084, "tags": {"description": "Area STIBM: Mi1", "name": "Comasina", "network": "STIBM", "network:wikidata": "Q65125405", "operator": "ATM", "public_transport": "station", "railway": "station", "start_date": "2011-03-26", "station": "subway", "wheelchair": "yes", "wikidata": "Q430991", "wikipedia": "it:Comasina (metropolitana di Milano)"}}, {"type": "node", "id": 9849996191, "lat": 45.4628444, "lon": 9.2782196, "tags": {"description": "Area STIBM: Mi1/Mi3", "name": "Linate Aeroporto", "network": "STIBM", "network:wikidata": "Q65125405", "operator": "ATM", "operator:wikidata": "Q381955", "public_transport": "station", "railway": "station", "start_date": "2022-11-26", "station": "subway", "subway": "yes", "train": "yes", "wheelchair": "yes", "wikidata": "Q3832563", "wikimedia_commons": "Category:Linate Aeroporto station (Milan metro)", "wikipedia": "it:Linate Aeroporto (metropolitana di Milano)"}}, {"type": "node", "id": 9849996192, "lat": 45.4644941, "lon": 9.2363221, "tags": {"description": "Area STIBM: Mi1", "name": "Stazione Forlanini", "network": "STIBM", "network:wikidata": "Q65125405", "operator": "ATM", "public_transport": "station", "railway": "station", "start_date": "2022-11-26", "station": "subway", "wikidata": "Q3748092", "wikimedia_commons": "Category:Stazione Forlanini station (Milan metro)", "wikipedia": "it:Stazione Forlanini (metropolitana di Milano)"}}, {"type": "node", "id": 9849996193, "lat": 45.4620064, "lon": 9.2403893, "tags": {"description": "Area STIBM: Mi1", "name": "Repetti", "network": "STIBM", "network:wikidata": "Q65125405", "operator": "ATM", "operator:wikidata": "Q381955", "public_transport": "station", "railway": "station", "start_date": "2022-11-26", "station": "subway", "train": "yes", "wikidata": "Q3748089", "wikimedia_commons": "Category:Repetti station (Milan metro)", "wikipedia": "it:Repetti (metropolitana di Milano)"}}, {"type": "node", "id": 9850493645, "lat": 45.429086, "lon": 9.2563154, "tags": {"description": "Area STIBM: Mi1/Mi3", "name": "San Donato", "network": "STIBM", "network:wikidata": "Q65125405", "operator": "ATM", "public_transport": "station", "railway": "station", "start_date": "1991", "station": "subway", "wheelchair": "yes", "wikidata": "Q1088234", "wikipedia": "it:San Donato (metropolitana di Milano)"}}, {"type": "node", "id": 9850493657, "lat": 45.4371382, "lon": 9.2303777, "tags": {"description": "Area STIBM: Mi1", "name": "Porto di Mare", "network": "STIBM", "network:wikidata": "Q65125405", "operator": "ATM", "public_transport": "station", "railway": "station", "start_date": "1991", "station": "subway", "wheelchair": "yes", "wikidata": "Q927253", "wikipedia": "it:Porto di Mare (metropolitana di Milano)"}}, {"type": "node", "id": 9850493675, "lat": 45.4427688, "lon": 9.2185197, "tags": {"description": "Area STIBM: Mi1", "name": "Brenta", "network": "STIBM", "network:wikidata": "Q65125405", "operator": "ATM", "operator:wikidata": "Q381955", "public_transport": "station", "railway": "station", "start_date": "1991", "station": "subway", "subway": "yes", "train": "yes", "wheelchair": "yes", "wikidata": "Q1088750", "wikipedia": "it:Brenta (metropolitana di Milano)"}}, {"type": "node", "id": 9850493676, "lat": 45.4403776, "lon": 9.2234375, "tags": {"description": "Area STIBM: Mi1", "name": "Corvetto", "network": "STIBM", "network:wikidata": "Q65125405", "operator": "ATM", "operator:wikidata": "Q381955", "public_transport": "station", "railway": "station", "start_date": "1991", "station": "subway", "subway": "yes", "train": "yes", "wheelchair": "yes", "wikidata": "Q1088746", "wikipedia": "it:Corvetto (metropolitana di Milano)"}}, {"type": "node", "id": 9850493678, "lat": 45.4468046, "lon": 9.2107332, "tags": {"description": "Area STIBM: Mi1", "name": "Lodi T.I.B.B.", "network": "STIBM", "network:wikidata": "Q65125405", "operator": "ATM", "operator:wikidata": "Q381955", "public_transport": "station", "railway": "station", "start_date": "1991", "station": "subway", "subway": "yes", "train": "yes", "wheelchair": "yes", "wikidata": "Q1088753", "wikipedia": "it:Lodi TIBB"}}, {"type": "node", "id": 9850493689, "lat": 45.4515333, "lon": 9.2032066, "tags": {"description": "Area STIBM: Mi1", "name": "Porta Romana", "network": "STIBM", "network:wikidata": "Q65125405", "operator": "ATM", "operator:wikidata": "Q381955", "public_transport": "station", "railway": "station", "start_date": "1990", "station": "subway", "subway": "yes", "train": "yes", "wheelchair": "yes", "wikidata": "Q1088096", "wikipedia": "it:Porta Romana (metropolitana di Milano)"}}, {"type": "node", "id": 9850493691, "lat": 45.4562736, "lon": 9.1955754, "tags": {"description": "Area STIBM: Mi1", "name": "Crocetta", "network": "STIBM", "network:wikidata": "Q65125405", "operator": "ATM", "operator:wikidata": "Q381955", "public_transport": "station", "railway": "station", "start_date": "1990", "station": "subway", "subway": "yes", "train": "yes", "wheelchair": "yes", "wikidata": "Q1088810", "wikipedia": "it:Crocetta (metropolitana di Milano)"}}, {"type": "node", "id": 9850493693, "lat": 45.4599554, "lon": 9.1893681, "tags": {"description": "Area STIBM: Mi1", "name": "Missori", "network": "STIBM", "network:wikidata": "Q65125405", "operator": "ATM", "operator:wikidata": "Q381955", "public_transport": "station", "railway": "station", "start_date": "1990", "station": "subway", "subway": "yes", "train": "yes", "wheelchair": "yes", "wikidata": "Q1088817", "wikipedia": "it:Missori (metropolitana di Milano)"}}, {"type": "node", "id": 9850493699, "lat": 45.4646014, "lon": 9.1894915, "tags": {"description": "Area STIBM: Mi1", "name": "Duomo", "name:it": "Duomo", "name:ja": "\u30c9\u30a5\u30aa\u30fc\u30e2", "network": "STIBM", "network:wikidata": "Q65125405", "operator": "ATM", "operator:wikidata": "Q381955", "public_transport": "station", "railway": "station", "start_date": "1964", "station": "subway", "train": "yes", "wheelchair": "yes", "wikidata": "Q2519375", "wikipedia": "it:Duomo (metropolitana di Milano)"}}, {"type": "node", "id": 9853414543, "lat": 45.4848401, "lon": 9.1947909, "tags": {"description": "Area STIBM: Mi1", "name": "Gioia", "name:it": "Gioia", "name:ja": "\u30b8\u30e7\u30a4\u30a2", "network": "STIBM", "network:wikidata": "Q65125405", "operator": "ATM", "operator:wikidata": "Q381955", "public_transport": "station", "railway": "station", "start_date": "1971", "station": "subway", "subway": "yes", "train": "yes", "wheelchair": "limited", "wikidata": "Q613198", "wikimedia_commons": "Category:Gioia station (Milan metro)", "wikipedia": "it:Gioia (metropolitana di Milano)"}}, {"type": "node", "id": 9853414544, "lat": 45.4835639, "lon": 9.1867087, "tags": {"description": "Area STIBM: Mi1", "name": "Garibaldi FS", "name:it": "Garibaldi FS", "name:ja": "\u30ac\u30ea\u30d0\u30eb\u30c7\u30a3", "network": "STIBM", "network:wikidata": "Q65125405", "operator": "ATM", "operator:wikidata": "Q381955", "platforms": "2", "public_transport": "station", "railway": "station", "start_date": "2014", "station": "subway", "subway": "yes", "train": "yes", "wheelchair": "yes", "wikidata": "Q1087026", "wikimedia_commons": "Category:Garibaldi FS station (Milan metro)", "wikipedia": "it:Garibaldi FS (metropolitana di Milano)"}}, {"type": "node", "id": 9853414547, "lat": 45.4844482, "lon": 9.2356061, "tags": {"description": "Area STIBM: Mi1", "name": "Lambrate FS", "network": "STIBM", "network:wikidata": "Q65125405", "operator": "ATM", "public_transport": "station", "railway": "station", "start_date": "1969", "station": "subway", "wheelchair": "limited", "wikidata": "Q3216683", "wikimedia_commons": "Category:Lambrate FS station (Milan metro)", "wikipedia": "it:Lambrate FS (metropolitana di Milano)"}}, {"type": "node", "id": 9853414548, "lat": 45.4808531, "lon": 9.2252588, "tags": {"description": "Area STIBM: Mi1", "name": "Piola", "network": "STIBM", "network:wikidata": "Q65125405", "operator": "ATM", "public_transport": "station", "railway": "station", "start_date": "1969", "station": "subway", "wheelchair": "limited", "wikidata": "Q3388904", "wikimedia_commons": "Category:Piola station (Milan metro)", "wikipedia": "it:Piola (metropolitana di Milano)"}}, {"type": "node", "id": 9853414557, "lat": 45.4852129, "lon": 9.2157423, "tags": {"description": "Area STIBM: Mi1", "name": "Loreto", "network": "STIBM", "network:wikidata": "Q65125405", "operator": "ATM", "public_transport": "station", "railway": "station", "start_date": "1964", "station": "subway", "subway": "yes", "train": "yes", "wheelchair": "yes", "wikidata": "Q645136", "wikipedia": "it:Loreto (metropolitana di Milano)"}}, {"type": "node", "id": 9853414558, "lat": 45.4842149, "lon": 9.2158851, "tags": {"description": "Area STIBM: Mi1", "name": "Loreto", "network": "STIBM", "network:wikidata": "Q65125405", "operator": "ATM", "public_transport": "station", "railway": "station", "start_date": "1969", "station": "subway", "wheelchair": "yes", "wikidata": "Q645136", "wikimedia_commons": "Category:Loreto station (Milan metro)", "wikipedia": "it:Loreto (metropolitana di Milano)"}}, {"type": "node", "id": 9853414565, "lat": 45.4853047, "lon": 9.2094139, "tags": {"description": "Area STIBM: Mi1", "name": "Caiazzo", "network": "STIBM", "network:wikidata": "Q65125405", "operator": "ATM", "operator:wikidata": "Q381955", "public_transport": "station", "railway": "station", "start_date": "1969", "station": "subway", "subway": "yes", "train": "yes", "wheelchair": "no", "wikidata": "Q1089056", "wikimedia_commons": "Category:Caiazzo station (Milan metro)", "wikipedia": "it:Caiazzo (metropolitana di Milano)"}}, {"type": "node", "id": 9858020667, "lat": 45.5048602, "lon": 9.2477628, "tags": {"description": "Area STIBM: Mi1", "name": "Crescenzago", "network": "STIBM", "network:wikidata": "Q65125405", "operator": "ATM", "public_transport": "station", "railway": "station", "start_date": "1969", "station": "subway", "wheelchair": "limited", "wikidata": "Q3002492", "wikimedia_commons": "Category:Crescenzago_station_(Milan_metro)", "wikipedia": "it:Crescenzago (metropolitana di Milano)"}}, {"type": "node", "id": 9858020698, "lat": 45.499541, "lon": 9.2407696, "tags": {"description": "Area STIBM: Mi1", "name": "Cimiano", "network": "STIBM", "network:wikidata": "Q65125405", "operator": "ATM", "operator:wikidata": "Q381955", "public_transport": "station", "railway": "station", "start_date": "1969", "station": "subway", "train": "yes", "wheelchair": "limited", "wikidata": "Q2972688", "wikimedia_commons": "Category:Cimiano station (Milan metro)", "wikipedia": "it:Cimiano (metropolitana di Milano)"}}, {"type": "node", "id": 9858020700, "lat": 45.4912082, "lon": 9.2370179, "tags": {"description": "Area STIBM: Mi1", "name": "Udine", "network": "STIBM", "network:wikidata": "Q65125405", "operator": "ATM", "public_transport": "station", "railway": "station", "start_date": "1969", "station": "subway", "wheelchair": "limited", "wikidata": "Q3547730", "wikimedia_commons": "Category:Udine station (Milan metro)", "wikipedia": "it:Udine (metropolitana di Milano)"}}, {"type": "node", "id": 9868328280, "lat": 45.5173026, "lon": 9.297902, "tags": {"description": "Area STIBM: Mi3", "name": "Cascina Burrona", "network": "STIBM", "network:wikidata": "Q65125405", "operator": "ATM", "public_transport": "station", "railway": "station", "start_date": "1968", "station": "subway", "wheelchair": "no", "wikidata": "Q2940891", "wikimedia_commons": "Category:Cascina Burrona station (Milan metro)", "wikipedia": "it:Cascina Burrona"}}, {"type": "node", "id": 9868341770, "lat": 45.515756, "lon": 9.2856571, "tags": {"description": "Area STIBM: Mi3", "name": "Vimodrone", "network": "STIBM", "network:wikidata": "Q65125405", "operator": "ATM", "public_transport": "station", "railway": "station", "start_date": "1968", "station": "subway", "wheelchair": "no", "wikidata": "Q3559341", "wikimedia_commons": "Category:Vimodrone station (Milan metro)", "wikipedia": "it:Vimodrone (metropolitana di Milano)"}}, {"type": "node", "id": 9872485266, "lat": 45.5209871, "lon": 9.3308377, "tags": {"description": "Area STIBM: Mi4", "name": "Cernusco sul Naviglio", "network": "STIBM", "network:wikidata": "Q65125405", "operator": "ATM", "public_transport": "station", "railway": "station", "start_date": "1968", "station": "subway", "wheelchair": "yes", "wikidata": "Q130062", "wikimedia_commons": "Category:Cernusco sul Naviglio station (Milan metro)", "wikipedia": "it:Cernusco sul Naviglio (metropolitana di Milano)"}}, {"type": "node", "id": 9887503495, "lat": 45.4437345, "lon": 9.1677011, "tags": {"description": "Area STIBM: Mi1", "name": "Romolo", "network": "STIBM", "network:wikidata": "Q65125405", "operator": "ATM", "operator:wikidata": "Q381955", "public_transport": "station", "railway": "station", "start_date": "1985", "station": "subway", "subway": "yes", "train": "yes", "wheelchair": "yes", "wikidata": "Q3441250", "wikimedia_commons": "Category:Romolo station (Milan metro)", "wikipedia": "it:Romolo (metropolitana di Milano)"}}, {"type": "node", "id": 9887508374, "lat": 45.4520244, "lon": 9.1693602, "tags": {"description": "Area STIBM: Mi1", "name": "Porta Genova", "network": "STIBM", "network:wikidata": "Q65125405", "operator": "ATM", "operator:wikidata": "Q381955", "public_transport": "station", "railway": "station", "start_date": "1983", "station": "subway", "subway": "yes", "train": "yes", "wheelchair": "limited", "wikidata": "Q510765", "wikimedia_commons": "Category:Porta Genova FS station (Milan metro)", "wikipedia": "it:Porta Genova FS (metropolitana di Milano)"}}, {"type": "node", "id": 9887508375, "lat": 45.4585981, "lon": 9.1698098, "tags": {"description": "Area STIBM: Mi1", "name": "Sant'Agostino", "network": "STIBM", "network:wikidata": "Q65125405", "operator": "ATM", "operator:wikidata": "Q381955", "public_transport": "station", "railway": "station", "start_date": "1983", "station": "subway", "subway": "yes", "train": "yes", "wheelchair": "limited", "wikidata": "Q1087596", "wikimedia_commons": "Category:Sant'Agostino station (Milan metro)", "wikipedia": "it:Sant'Agostino (metropolitana di Milano)"}}, {"type": "node", "id": 9887508376, "lat": 45.4616424, "lon": 9.1732394, "tags": {"description": "Area STIBM: Mi1", "name": "Sant'Ambrogio", "name:it": "Sant'Ambrogio", "name:ja": "\u30b5\u30f3\u30bf\u30f3\u30d6\u30ed\u30fc\u30b8\u30e7", "network": "STIBM", "network:wikidata": "Q65125405", "operator": "ATM", "operator:wikidata": "Q381955", "public_transport": "station", "railway": "station", "start_date": "1983", "station": "subway", "subway": "yes", "train": "yes", "wheelchair": "limited", "wikidata": "Q1087580", "wikimedia_commons": "Category:Sant'Ambrogio station (Milan metro)", "wikipedia": "it:Sant'Ambrogio (metropolitana di Milano)"}}, {"type": "node", "id": 9887508378, "lat": 45.4682326, "lon": 9.176463, "tags": {"description": "Area STIBM: Mi1", "name": "Cadorna FN", "name:it": "Cadorna FN", "name:ja": "\u30ab\u30c9\u30eb\u30ca", "network": "STIBM", "network:wikidata": "Q65125405", "operator": "ATM", "operator:wikidata": "Q381955", "public_transport": "station", "railway": "station", "start_date": "1964", "station": "subway", "subway": "yes", "train": "yes", "wheelchair": "yes", "wikidata": "Q2258101", "wikimedia_commons": "Category:Cadorna station (Milan metro)", "wikipedia": "it:Cadorna FN (metropolitana di Milano)"}}, {"type": "node", "id": 9887508379, "lat": 45.4681452, "lon": 9.1771272, "tags": {"description": "Area STIBM: Mi1", "name": "Cadorna FN", "name:it": "Cadorna FN", "name:ja": "\u30ab\u30c9\u30eb\u30ca", "network": "STIBM", "network:wikidata": "Q65125405", "operator": "ATM", "operator:wikidata": "Q381955", "public_transport": "station", "railway": "station", "start_date": "1978", "station": "subway", "subway": "yes", "train": "yes", "wheelchair": "yes", "wikidata": "Q2258101", "wikipedia": "it:Cadorna FN (metropolitana di Milano)"}}, {"type": "node", "id": 9887508382, "lat": 45.4718013, "lon": 9.1823052, "tags": {"description": "Area STIBM: Mi1", "name": "Lanza", "name:it": "Lanza", "name:ja": "\u30e9\u30f3\u30c4\u30a1", "network": "STIBM", "network:wikidata": "Q65125405", "operator": "ATM", "operator:wikidata": "Q381955", "public_transport": "station", "railway": "station", "start_date": "1978", "station": "subway", "wheelchair": "no", "wikidata": "Q941926", "wikimedia_commons": "Category:Lanza station (Milan metro)", "wikipedia": "it:Lanza (metropolitana di Milano)"}}, {"type": "node", "id": 9887508384, "lat": 45.4770858, "lon": 9.1843685, "tags": {"description": "Area STIBM: Mi1", "name": "Moscova", "name:it": "Moscova", "name:ja": "\u30e2\u30b9\u30b3\u30fc\u30f4\u30a1", "network": "STIBM", "network:wikidata": "Q65125405", "operator": "ATM", "operator:wikidata": "Q381955", "public_transport": "station", "railway": "station", "start_date": "1978", "station": "subway", "subway": "yes", "train": "yes", "wheelchair": "no", "wikidata": "Q1087114", "wikimedia_commons": "Category:Moscova station (Milan metro)", "wikipedia": "it:Moscova (metropolitana di Milano)"}}, {"type": "node", "id": 9897478671, "lat": 45.5343356, "lon": 9.2315475, "tags": {"description": "Area STIBM: Mi3", "name": "Sesto Rond\u00f2", "network": "STIBM", "network:wikidata": "Q65125405", "operator": "ATM", "public_transport": "station", "railway": "station", "start_date": "1986", "station": "subway", "wheelchair": "no", "wikidata": "Q1085053", "wikipedia": "it:Sesto Rond\u00f2"}}, {"type": "node", "id": 9897478672, "lat": 45.5234791, "lon": 9.2279272, "tags": {"description": "Area STIBM: Mi1/Mi3", "name": "Sesto Marelli", "network": "STIBM", "network:wikidata": "Q65125405", "operator": "ATM", "public_transport": "station", "railway": "station", "start_date": "1964", "station": "subway", "wheelchair": "limited", "wikidata": "Q1085066", "wikipedia": "it:Sesto Marelli"}}, {"type": "node", "id": 9897478673, "lat": 45.5174649, "lon": 9.2261092, "tags": {"description": "Area STIBM: Mi1", "name": "Villa San Giovanni", "network": "STIBM", "network:wikidata": "Q65125405", "operator": "ATM", "public_transport": "station", "railway": "station", "start_date": "1964", "station": "subway", "wheelchair": "no", "wikidata": "Q1085042", "wikipedia": "it:Villa San Giovanni (metropolitana di Milano)"}}, {"type": "node", "id": 9897478674, "lat": 45.5120331, "lon": 9.2244644, "tags": {"description": "Area STIBM: Mi1", "name": "Precotto", "network": "STIBM", "network:wikidata": "Q65125405", "operator": "ATM", "public_transport": "station", "railway": "station", "start_date": "1964", "station": "subway", "wheelchair": "limited", "wikidata": "Q1085136", "wikipedia": "it:Precotto (metropolitana di Milano)"}}, {"type": "node", "id": 9897478676, "lat": 45.5061558, "lon": 9.2226651, "tags": {"description": "Area STIBM: Mi1", "name": "Gorla", "network": "STIBM", "network:wikidata": "Q65125405", "operator": "ATM", "public_transport": "station", "railway": "station", "start_date": "1964", "station": "subway", "wheelchair": "limited", "wikidata": "Q1085075", "wikipedia": "it:Gorla (metropolitana di Milano)"}}, {"type": "node", "id": 9897478677, "lat": 45.5004487, "lon": 9.2209865, "tags": {"description": "Area STIBM: Mi1", "name": "Turro", "network": "STIBM", "network:wikidata": "Q65125405", "operator": "ATM", "operator:wikidata": "Q381955", "public_transport": "station", "railway": "station", "start_date": "1964", "station": "subway", "subway": "yes", "train": "yes", "wheelchair": "no", "wikidata": "Q614683", "wikipedia": "it:Turro (metropolitana di Milano)"}}, {"type": "node", "id": 9897478678, "lat": 45.495536, "lon": 9.2194872, "tags": {"description": "Area STIBM: Mi1", "name": "Rovereto", "network": "STIBM", "network:wikidata": "Q65125405", "operator": "ATM", "public_transport": "station", "railway": "station", "start_date": "1964", "station": "subway", "toilets:wheelchair": "no", "wheelchair": "yes", "wikidata": "Q2258090", "wikipedia": "it:Rovereto (metropolitana di Milano)"}}, {"type": "node", "id": 9897478679, "lat": 45.4902857, "lon": 9.2179293, "tags": {"description": "Area STIBM: Mi1", "name": "Pasteur", "network": "STIBM", "network:wikidata": "Q65125405", "operator": "ATM", "operator:wikidata": "Q381955", "public_transport": "station", "railway": "station", "start_date": "1964", "station": "subway", "subway": "yes", "train": "yes", "wheelchair": "no", "wikidata": "Q1087102", "wikipedia": "it:Pasteur (metropolitana di Milano)"}}, {"type": "node", "id": 9897478706, "lat": 45.4666474, "lon": 9.197568, "tags": {"description": "Area STIBM: Mi1", "name": "San Babila", "network": "STIBM", "network:wikidata": "Q65125405", "operator": "ATM", "operator:wikidata": "Q381955", "public_transport": "station", "railway": "station", "start_date": "1964", "station": "subway", "subway": "yes", "train": "yes", "wheelchair": "limited", "wikidata": "Q1087622", "wikipedia": "it:San Babila (metropolitana di Milano)"}}, {"type": "node", "id": 9897478707, "lat": 45.4716297, "lon": 9.2021428, "tags": {"description": "Area STIBM: Mi1", "name": "Palestro", "network": "STIBM", "network:wikidata": "Q65125405", "operator": "ATM", "operator:wikidata": "Q381955", "public_transport": "station", "railway": "station", "start_date": "1964", "station": "subway", "subway": "yes", "train": "yes", "wheelchair": "limited", "wikidata": "Q549621", "wikipedia": "it:Palestro (metropolitana di Milano)"}}, {"type": "node", "id": 9897478708, "lat": 45.480357, "lon": 9.2109589, "tags": {"description": "Area STIBM: Mi1", "name": "Lima", "network": "STIBM", "network:wikidata": "Q65125405", "operator": "ATM", "operator:wikidata": "Q381955", "public_transport": "station", "railway": "station", "start_date": "1964", "station": "subway", "wheelchair": "limited", "wikidata": "Q2258138", "wikipedia": "it:Lima (metropolitana di Milano)"}}, {"type": "node", "id": 9897478713, "lat": 45.4684915, "lon": 9.1819853, "tags": {"description": "Area STIBM: Mi1", "name": "Cairoli", "network": "STIBM", "network:wikidata": "Q65125405", "operator": "ATM", "operator:wikidata": "Q381955", "public_transport": "station", "railway": "station", "start_date": "1964", "station": "subway", "subway": "yes", "train": "yes", "wheelchair": "limited", "wikidata": "Q1087670", "wikipedia": "it:Cairoli (metropolitana di Milano)"}}, {"type": "node", "id": 9897478714, "lat": 45.4655495, "lon": 9.1862299, "tags": {"description": "Area STIBM: Mi1", "name": "Cordusio", "network": "STIBM", "network:wikidata": "Q65125405", "operator": "ATM", "operator:wikidata": "Q381955", "public_transport": "station", "railway": "station", "start_date": "1964", "station": "subway", "subway": "yes", "train": "yes", "wheelchair": "limited", "wikidata": "Q1087020", "wikipedia": "it:Cordusio (metropolitana di Milano)"}}, {"type": "node", "id": 9899501073, "lat": 45.5416794, "lon": 9.2383256, "tags": {"description": "Area STIBM: Mi3", "name": "Sesto 1\u00ba Maggio FS", "network": "STIBM", "network:wikidata": "Q65125405", "operator": "ATM", "public_transport": "station", "railway": "station", "start_date": "1986", "station": "subway", "wheelchair": "yes", "wikidata": "Q2258149", "wikipedia": "it:Sesto 1\u00ba Maggio FS"}}, {"type": "node", "id": 9903985165, "lat": 45.5088, "lon": 9.0857088, "tags": {"description": "Area STIBM: Mi3", "name": "Pero", "network": "STIBM", "network:wikidata": "Q65125405", "operator": "ATM", "public_transport": "station", "railway": "station", "start_date": "2005", "station": "subway", "wheelchair": "yes", "wikidata": "Q1087047", "wikipedia": "it:Pero (metropolitana di Milano)"}}, {"type": "node", "id": 9914785146, "lat": 45.4575781, "lon": 9.1222244, "tags": {"description": "Area STIBM: Mi1", "name": "Inganni", "network": "STIBM", "network:wikidata": "Q65125405", "operator": "ATM", "operator:wikidata": "Q381955", "public_transport": "station", "railway": "station", "start_date": "1975", "station": "subway", "subway": "yes", "train": "yes", "wheelchair": "limited", "wikidata": "Q3150918", "wikipedia": "it:Inganni (metropolitana di Milano)"}}, {"type": "node", "id": 9914785147, "lat": 45.4594303, "lon": 9.1292549, "tags": {"description": "Area STIBM: Mi1", "name": "Primaticcio", "network": "STIBM", "network:wikidata": "Q65125405", "operator": "ATM", "operator:wikidata": "Q381955", "public_transport": "station", "railway": "station", "start_date": "1975", "station": "subway", "subway": "yes", "train": "yes", "wheelchair": "no", "wikidata": "Q3403179", "wikipedia": "it:Primaticcio (metropolitana di Milano)"}}, {"type": "node", "id": 9914785148, "lat": 45.461524, "lon": 9.1364657, "tags": {"description": "Area STIBM: Mi1", "name": "Bande Nere", "network": "STIBM", "network:wikidata": "Q65125405", "operator": "ATM", "operator:wikidata": "Q381955", "public_transport": "station", "railway": "station", "start_date": "1975", "station": "subway", "subway": "yes", "train": "yes", "wheelchair": "limited", "wikidata": "Q2882165", "wikipedia": "it:Bande Nere (metropolitana di Milano)"}}, {"type": "node", "id": 9914785149, "lat": 45.4649139, "lon": 9.1430147, "tags": {"description": "Area STIBM: Mi1", "name": "Gambara", "network": "STIBM", "network:wikidata": "Q65125405", "operator": "ATM", "operator:wikidata": "Q381955", "public_transport": "station", "railway": "station", "start_date": "1966", "station": "subway", "subway": "yes", "train": "yes", "wheelchair": "limited", "wikidata": "Q3094926", "wikipedia": "it:Gambara (metropolitana di Milano)"}}, {"type": "node", "id": 9914785152, "lat": 45.5051543, "lon": 9.0933177, "tags": {"description": "Area STIBM: Mi1", "name": "Molino Dorino", "network": "STIBM", "network:wikidata": "Q65125405", "operator": "ATM", "public_transport": "station", "railway": "station", "start_date": "1986", "station": "subway", "train": "yes", "wheelchair": "yes", "wikidata": "Q1087562", "wikipedia": "it:Molino Dorino (metropolitana di Milano)"}}, {"type": "node", "id": 9914785155, "lat": 45.5011378, "lon": 9.1015462, "tags": {"description": "Area STIBM: Mi1", "name": "San Leonardo", "network": "STIBM", "network:wikidata": "Q65125405", "operator": "ATM", "operator:wikidata": "Q381955", "public_transport": "station", "railway": "station", "start_date": "1980", "station": "subway", "subway": "yes", "train": "yes", "wheelchair": "no", "wikidata": "Q1087081", "wikipedia": "it:San Leonardo (metropolitana di Milano)"}}, {"type": "node", "id": 9914785156, "lat": 45.4970317, "lon": 9.1101295, "tags": {"description": "Area STIBM: Mi1", "name": "Bonola", "network": "STIBM", "network:wikidata": "Q65125405", "operator": "ATM", "public_transport": "station", "railway": "station", "start_date": "1980", "station": "subway", "toilets:wheelchair": "yes", "wheelchair": "yes", "wikidata": "Q1087591", "wikipedia": "it:Bonola (metropolitana di Milano)"}}, {"type": "node", "id": 9914785157, "lat": 45.4938806, "lon": 9.1202555, "tags": {"description": "Area STIBM: Mi1", "name": "Uruguay", "network": "STIBM", "network:wikidata": "Q65125405", "operator": "ATM", "public_transport": "station", "railway": "station", "start_date": "1980", "station": "subway", "wheelchair": "no", "wikidata": "Q1087618", "wikipedia": "it:Uruguay (metropolitana di Milano)"}}, {"type": "node", "id": 9914785158, "lat": 45.489492, "lon": 9.1271948, "tags": {"description": "Area STIBM: Mi1", "name": "Lampugnano", "network": "STIBM", "network:wikidata": "Q65125405", "operator": "ATM", "public_transport": "station", "railway": "station", "start_date": "1980", "station": "subway", "train": "yes", "wheelchair": "yes", "wikidata": "Q1087090", "wikipedia": "it:Lampugnano (metropolitana di Milano)"}}, {"type": "node", "id": 9914785159, "lat": 45.4860084, "lon": 9.1370307, "tags": {"description": "Area STIBM: Mi1", "name": "QT8", "network": "STIBM", "network:wikidata": "Q65125405", "operator": "ATM", "public_transport": "station", "railway": "station", "start_date": "1975", "station": "subway", "wheelchair": "no", "wikidata": "Q1087575", "wikipedia": "it:QT8 (metropolitana di Milano)"}}, {"type": "node", "id": 9914785169, "lat": 45.479692, "lon": 9.1437786, "tags": {"description": "Area STIBM: Mi1", "name": "Lotto", "network": "STIBM", "network:wikidata": "Q65125405", "operator": "ATM", "operator:wikidata": "Q381955", "public_transport": "station", "railway": "station", "start_date": "2015", "station": "subway", "subway": "yes", "train": "yes", "wheelchair": "yes", "wikidata": "Q1085126", "wikipedia": "it:Lotto (metropolitana di Milano)"}}, {"type": "node", "id": 9914785170, "lat": 45.4786497, "lon": 9.144456, "tags": {"description": "Area STIBM: Mi1", "name": "Lotto", "network": "STIBM", "network:wikidata": "Q65125405", "operator": "ATM", "operator:wikidata": "Q381955", "public_transport": "station", "railway": "station", "start_date": "1964", "station": "subway", "subway": "yes", "train": "yes", "wheelchair": "yes", "wikidata": "Q1085126", "wikipedia": "it:Lotto (metropolitana di Milano)"}}, {"type": "node", "id": 9914785173, "lat": 45.4736967, "lon": 9.1509963, "tags": {"description": "Area STIBM: Mi1", "name": "Amendola", "network": "STIBM", "network:wikidata": "Q65125405", "operator": "ATM", "operator:wikidata": "Q381955", "public_transport": "station", "railway": "station", "start_date": "1964", "station": "subway", "subway": "yes", "train": "yes", "wheelchair": "limited", "wikidata": "Q1087585", "wikipedia": "it:Amendola (metropolitana di Milano)"}}, {"type": "node", "id": 9914785174, "lat": 45.4704169, "lon": 9.155316, "tags": {"description": "Area STIBM: Mi1", "name": "Buonarroti", "network": "STIBM", "network:wikidata": "Q65125405", "operator": "ATM", "operator:wikidata": "Q381955", "public_transport": "station", "railway": "station", "start_date": "1964", "station": "subway", "subway": "yes", "train": "yes", "wheelchair": "no", "wikidata": "Q1087612", "wikipedia": "it:Buonarroti (metropolitana di Milano)"}}, {"type": "node", "id": 9914785175, "lat": 45.4664527, "lon": 9.1495656, "tags": {"description": "Area STIBM: Mi1", "name": "De Angeli", "network": "STIBM", "network:wikidata": "Q65125405", "operator": "ATM", "operator:wikidata": "Q381955", "public_transport": "station", "railway": "station", "start_date": "1966", "station": "subway", "subway": "yes", "train": "yes", "wheelchair": "no", "wikidata": "Q2815996", "wikipedia": "it:De Angeli (metropolitana di Milano)"}}, {"type": "node", "id": 9914785176, "lat": 45.4678782, "lon": 9.1555175, "tags": {"description": "Area STIBM: Mi1", "name": "Wagner", "network": "STIBM", "network:wikidata": "Q65125405", "operator": "ATM", "operator:wikidata": "Q381955", "public_transport": "station", "railway": "station", "start_date": "1966", "station": "subway", "subway": "yes", "train": "yes", "wheelchair": "no", "wikidata": "Q3565090", "wikipedia": "it:Wagner (metropolitana di Milano)"}}, {"type": "node", "id": 9914785180, "lat": 45.4683019, "lon": 9.161102, "tags": {"description": "Area STIBM: Mi1", "name": "Pagano", "network": "STIBM", "network:wikidata": "Q65125405", "operator": "ATM", "operator:wikidata": "Q381955", "public_transport": "station", "railway": "station", "start_date": "1964", "station": "subway", "subway": "yes", "train": "yes", "wheelchair": "limited", "wikidata": "Q1087677", "wikipedia": "it:Pagano (metropolitana di Milano)"}}, {"type": "node", "id": 9914785181, "lat": 45.467522, "lon": 9.1666054, "tags": {"description": "Area STIBM: Mi1", "name": "Conciliazione", "network": "STIBM", "network:wikidata": "Q65125405", "operator": "ATM", "operator:wikidata": "Q381955", "public_transport": "station", "railway": "station", "start_date": "1964", "station": "subway", "subway": "yes", "train": "yes", "wheelchair": "no", "wikidata": "Q2258112", "wikipedia": "it:Conciliazione (metropolitana di Milano)"}}, {"type": "node", "id": 10036502930, "lat": 45.4762325, "lon": 9.1183538, "tags": {"description": "Area STIBM: Mi1", "name": "San Siro Stadio", "network": "STIBM", "network:wikidata": "Q65125405", "operator": "ATM", "operator:wikidata": "Q381955", "public_transport": "station", "railway": "station", "start_date": "2015", "station": "subway", "subway": "yes", "train": "yes", "wheelchair": "yes", "wikidata": "Q3947983", "wikipedia": "it:San Siro Stadio"}}, {"type": "node", "id": 10036502931, "lat": 45.4760554, "lon": 9.1290328, "tags": {"description": "Area STIBM: Mi1", "name": "San Siro Ippodromo", "network": "STIBM", "network:wikidata": "Q65125405", "operator": "ATM", "public_transport": "station", "railway": "station", "start_date": "2015", "station": "subway", "wheelchair": "yes", "wikidata": "Q3947981", "wikipedia": "it:San Siro Ippodromo"}}, {"type": "node", "id": 10036502932, "lat": 45.476243, "lon": 9.1379391, "tags": {"description": "Area STIBM: Mi1", "name": "Segesta", "network": "STIBM", "network:wikidata": "Q65125405", "operator": "ATM", "operator:wikidata": "Q381955", "public_transport": "station", "railway": "station", "start_date": "2015", "station": "subway", "subway": "yes", "train": "yes", "wheelchair": "yes", "wikidata": "Q3954249", "wikipedia": "it:Segesta (metropolitana di Milano)"}}, {"type": "node", "id": 10036502936, "lat": 45.4813162, "lon": 9.1506045, "tags": {"description": "Area STIBM: Mi1", "name": "Portello", "network": "STIBM", "network:wikidata": "Q65125405", "operator": "ATM", "operator:wikidata": "Q381955", "public_transport": "station", "railway": "station", "start_date": "2015", "station": "subway", "subway": "yes", "train": "yes", "wheelchair": "yes", "wikidata": "Q3909031", "wikipedia": "it:Portello (metropolitana di Milano)"}}, {"type": "node", "id": 10036502937, "lat": 45.478044, "lon": 9.1567618, "tags": {"description": "Area STIBM: Mi1", "name": "Tre Torri", "network": "STIBM", "network:wikidata": "Q65125405", "operator": "ATM", "operator:wikidata": "Q381955", "public_transport": "station", "railway": "station", "start_date": "2015", "station": "subway", "subway": "yes", "train": "yes", "wheelchair": "yes", "wikidata": "Q3998075", "wikipedia": "it:Tre Torri"}}, {"type": "node", "id": 10036502938, "lat": 45.4814045, "lon": 9.1619408, "tags": {"description": "Area STIBM: Mi1", "name": "Domodossola FN", "network": "STIBM", "network:wikidata": "Q65125405", "operator": "ATM", "operator:wikidata": "Q381955", "public_transport": "station", "railway": "station", "start_date": "2015", "station": "subway", "subway": "yes", "train": "yes", "wheelchair": "yes", "wikidata": "Q3713387", "wikipedia": "it:Domodossola FN"}}, {"type": "node", "id": 10036502939, "lat": 45.4844616, "lon": 9.1666565, "tags": {"description": "Area STIBM: Mi1", "name": "Gerusalemme", "network": "STIBM", "network:wikidata": "Q65125405", "operator": "ATM", "operator:wikidata": "Q381955", "public_transport": "station", "railway": "station", "start_date": "2015", "station": "subway", "subway": "yes", "train": "yes", "wheelchair": "yes", "wikidata": "Q3761342", "wikipedia": "it:Gerusalemme (metropolitana di Milano)"}}, {"type": "node", "id": 10036502940, "lat": 45.4874537, "lon": 9.172262, "tags": {"description": "Area STIBM: Mi1", "name": "Cenisio", "network": "STIBM", "network:wikidata": "Q65125405", "official_name": "Cenisio Widiba", "operator": "ATM", "operator:wikidata": "Q381955", "public_transport": "station", "railway": "station", "start_date": "2015", "station": "subway", "subway": "yes", "train": "yes", "wheelchair": "yes", "wikidata": "Q3664398", "wikipedia": "it:Cenisio (metropolitana di Milano)"}}, {"type": "node", "id": 10036502941, "lat": 45.4851181, "lon": 9.1804883, "tags": {"description": "Area STIBM: Mi1", "name": "Monumentale", "network": "STIBM", "network:wikidata": "Q65125405", "operator": "ATM", "public_transport": "station", "railway": "station", "start_date": "2015", "station": "subway", "wheelchair": "yes", "wikidata": "Q3862568", "wikipedia": "it:Monumentale (metropolitana di Milano)"}}, {"type": "node", "id": 10036502946, "lat": 45.5267835, "lon": 9.2121828, "tags": {"description": "Area STIBM: Mi1", "name": "Bignami", "network": "STIBM", "network:wikidata": "Q65125405", "official_name": "Bignami Parco Nord", "operator": "ATM", "public_transport": "station", "railway": "station", "start_date": "2013", "station": "subway", "wheelchair": "yes", "wikidata": "Q2902416", "wikipedia": "it:Bignami (metropolitana di Milano)"}}, {"type": "node", "id": 10036502947, "lat": 45.5219991, "lon": 9.2094704, "tags": {"description": "Area STIBM: Mi1", "name": "Ponale", "network": "STIBM", "network:wikidata": "Q65125405", "operator": "ATM", "public_transport": "station", "railway": "station", "start_date": "2013", "station": "subway", "wheelchair": "yes", "wikidata": "Q3907907", "wikipedia": "it:Ponale (metropolitana di Milano)"}}, {"type": "node", "id": 10036502948, "lat": 45.5147332, "lon": 9.2053603, "tags": {"description": "Area STIBM: Mi1", "name": "Bicocca", "network": "STIBM", "network:wikidata": "Q65125405", "operator": "ATM", "public_transport": "station", "railway": "station", "start_date": "2013", "station": "subway", "wheelchair": "yes", "wikidata": "Q3639727", "wikipedia": "it:Bicocca (metropolitana di Milano)"}}, {"type": "node", "id": 10036502949, "lat": 45.5072418, "lon": 9.201118, "tags": {"description": "Area STIBM: Mi1", "name": "Ca' Granda - Pratocentenaro", "network": "STIBM", "network:wikidata": "Q65125405", "operator": "ATM", "public_transport": "station", "railway": "station", "short_name": "Ca' Granda", "start_date": "2013", "station": "subway", "wheelchair": "yes", "wikidata": "Q3649077", "wikipedia": "it:Ca' Granda (metropolitana di Milano)"}}, {"type": "node", "id": 10036502950, "lat": 45.5016171, "lon": 9.197952, "tags": {"description": "Area STIBM: Mi1", "name": "Istria", "network": "STIBM", "network:wikidata": "Q65125405", "operator": "ATM", "public_transport": "station", "railway": "station", "start_date": "2013", "station": "subway", "wheelchair": "yes", "wikidata": "Q3803878", "wikipedia": "it:Istria (metropolitana di Milano)"}}, {"type": "node", "id": 10036502951, "lat": 45.496352, "lon": 9.1949689, "tags": {"description": "Area STIBM: Mi1", "name": "Marche", "network": "STIBM", "network:wikidata": "Q65125405", "operator": "ATM", "public_transport": "station", "railway": "station", "start_date": "2013", "station": "subway", "wheelchair": "yes", "wikidata": "Q3845747", "wikipedia": "it:Marche (metropolitana di Milano)"}}, {"type": "node", "id": 10036502952, "lat": 45.487612, "lon": 9.1912938, "tags": {"description": "Area STIBM: Mi1", "name": "Isola", "network": "STIBM", "network:wikidata": "Q65125405", "operator": "ATM", "operator:wikidata": "Q381955", "public_transport": "station", "railway": "station", "start_date": "2014", "station": "subway", "subway": "yes", "train": "yes", "wheelchair": "yes", "wikidata": "Q3802661", "wikipedia": "it:Isola (metropolitana di Milano)"}}, {"type": "node", "id": 10108660046, "lat": 45.4680015, "lon": 9.2184474, "tags": {"description": "Area STIBM: Mi1", "name": "Dateo", "network": "STIBM", "network:wikidata": "Q65125405", "operator": "ATM", "operator:wikidata": "Q381955", "public_transport": "station", "railway": "station", "start_date": "2022-11-26", "station": "subway", "subway": "yes", "train": "yes", "wikidata": "Q23018098", "wikimedia_commons": "Category:Dateo station (Milan metro)", "wikipedia": "it:Dateo (metropolitana di Milano)"}}, {"type": "node", "id": 10108660047, "lat": 45.4680992, "lon": 9.2319145, "tags": {"description": "Area STIBM: Mi1", "name": "Argonne", "network": "STIBM", "network:wikidata": "Q65125405", "operator": "ATM", "operator:wikidata": "Q381955", "public_transport": "station", "railway": "station", "start_date": "2022-11-26", "station": "subway", "subway": "yes", "train": "yes", "wheelchair": "yes", "wikidata": "Q23018087", "wikimedia_commons": "Category:Argonne station (Milan metro)", "wikipedia": "it:Argonne (metropolitana di Milano)"}}, {"type": "node", "id": 10108660048, "lat": 45.4680527, "lon": 9.2248746, "tags": {"description": "Area STIBM: Mi1", "name": "Susa", "network": "STIBM", "network:wikidata": "Q65125405", "operator": "ATM", "public_transport": "station", "railway": "station", "start_date": "2022-11-26", "station": "subway", "wikidata": "Q23018091", "wikimedia_commons": "Category:Susa station (Milan metro)", "wikipedia": "it:Susa (metropolitana di Milano)"}}, {"type": "node", "id": 10942881307, "lat": 45.4679057, "lon": 9.2077742, "tags": {"description": "Area STIBM: Mi1", "name": "Tricolore", "network": "STIBM", "network:wikidata": "Q65125405", "operator": "ATM", "public_transport": "station", "railway": "station", "start_date": "2023-07-04", "station": "subway", "wikidata": "Q23018103", "wikipedia": "it:Tricolore (metropolitana di Milano)"}}, {"type": "node", "id": 10945877646, "lat": 45.4659916, "lon": 9.1976944, "tags": {"description": "Area STIBM: Mi1", "name": "San Babila", "network": "STIBM", "network:wikidata": "Q65125405", "operator": "ATM", "operator:wikidata": "Q381955", "public_transport": "station", "railway": "station", "start_date": "2023-07-04", "station": "subway", "subway": "yes", "train": "yes", "wikidata": "Q1087622", "wikipedia": "it:San Babila (metropolitana di Milano)"}}, {"type": "node", "id": 11638880258, "lat": 45.4591231, "lon": 9.177399, "tags": {"description": "Area STIBM: Mi1", "name": "De Amicis", "network": "STIBM", "network:wikidata": "Q65125405", "operator": "ATM", "operator:wikidata": "Q381955", "public_transport": "station", "railway": "station", "start_date": "2024-10-12", "station": "subway", "subway": "yes", "train": "yes", "wikidata": "Q22806960", "wikipedia": "it:De Amicis (metropolitana di Milano)"}}, {"type": "node", "id": 11638880259, "lat": 45.4572551, "lon": 9.1825442, "tags": {"description": "Area STIBM: Mi1", "name": "Vetra", "network": "STIBM", "network:wikidata": "Q65125405", "operator": "ATM", "operator:wikidata": "Q381955", "public_transport": "station", "railway": "station", "start_date": "2024-10-12", "station": "subway", "train": "yes", "wikidata": "Q31441771", "wikipedia": "it:Vetra (metropolitana di Milano)"}}, {"type": "node", "id": 11638882004, "lat": 45.4625663, "lon": 9.1729177, "tags": {"description": "Area STIBM: Mi1", "name": "Sant'Ambrogio", "name:it": "Sant'Ambrogio", "name:ja": "\u30b5\u30f3\u30bf\u30f3\u30d6\u30ed\u30fc\u30b8\u30e7", "network": "STIBM", "network:wikidata": "Q65125405", "operator": "ATM", "operator:wikidata": "Q381955", "public_transport": "station", "railway": "station", "start_date": "2024-10-12", "station": "subway", "train": "yes", "wheelchair": "yes", "wikidata": "Q1087580", "wikimedia_commons": "Category:Sant'Ambrogio station (Milan metro)", "wikipedia": "it:Sant'Ambrogio (metropolitana di Milano)"}}, {"type": "node", "id": 11638913870, "lat": 45.4563886, "lon": 9.1884362, "tags": {"description": "Area STIBM: Mi1", "name": "Santa Sofia", "network": "STIBM", "network:wikidata": "Q65125405", "operator": "ATM", "operator:wikidata": "Q381955", "public_transport": "station", "railway": "station", "start_date": "2024-10-12", "station": "subway", "subway": "yes", "train": "yes", "wikidata": "Q23038727", "wikipedia": "it:Santa Sofia (metropolitana di Milano)"}}, {"type": "node", "id": 11638913897, "lat": 45.4586155, "lon": 9.1942928, "tags": {"description": "Area STIBM: Mi1", "name": "Sforza-Policlinico", "network": "STIBM", "network:wikidata": "Q65125405", "operator": "ATM", "operator:wikidata": "Q381955", "public_transport": "station", "railway": "station", "start_date": "2024-10-12", "station": "subway", "subway": "yes", "train": "yes", "wikidata": "Q23016268", "wikipedia": "it:Sforza Policlinico (metropolitana di Milano)"}}, {"type": "node", "id": 11701081855, "lat": 45.4303909, "lon": 9.1655547, "tags": {"name": "Quartiere Sant'Ambrogio", "operator": "ATM", "proposed": "station", "railway": "proposed", "station": "subway", "subway": "yes"}}, {"type": "node", "id": 11705098343, "lat": 45.4418049, "lon": 9.1299776, "tags": {"description": "Area STIBM: Mi1", "name": "San Cristoforo", "network": "STIBM", "network:wikidata": "Q65125405", "operator": "ATM", "operator:wikidata": "Q381955", "public_transport": "station", "railway": "station", "start_date": "2024-10-12", "station": "subway", "train": "yes", "wheelchair": "yes", "wikidata": "Q22806967", "wikipedia": "it:San Cristoforo (metropolitana di Milano)"}}, {"type": "node", "id": 11705098344, "lat": 45.4469415, "lon": 9.1309039, "tags": {"description": "Area STIBM: Mi1", "name": "Segneri", "network": "STIBM", "network:wikidata": "Q65125405", "operator": "ATM", "operator:wikidata": "Q381955", "public_transport": "station", "railway": "station", "start_date": "2024-10-12", "station": "subway", "subway": "yes", "train": "yes", "wheelchair": "yes", "wikidata": "Q23018030", "wikipedia": "it:Segneri (metropolitana di Milano)"}}, {"type": "node", "id": 11705098345, "lat": 45.4497587, "lon": 9.1358898, "tags": {"description": "Area STIBM: Mi1", "name": "Gelsomini", "network": "STIBM", "network:wikidata": "Q65125405", "operator": "ATM", "operator:wikidata": "Q381955", "public_transport": "station", "railway": "station", "start_date": "2024-10-12", "station": "subway", "subway": "yes", "train": "yes", "wheelchair": "yes", "wikidata": "Q23018026", "wikipedia": "it:Gelsomini (metropolitana di Milano)"}}, {"type": "node", "id": 11705098346, "lat": 45.4518746, "lon": 9.1424066, "tags": {"description": "Area STIBM: Mi1", "name": "Frattini", "network": "STIBM", "network:wikidata": "Q65125405", "operator": "ATM", "operator:wikidata": "Q381955", "public_transport": "station", "railway": "station", "start_date": "2024-10-12", "station": "subway", "subway": "yes", "train": "yes", "wheelchair": "yes", "wikidata": "Q23018020", "wikipedia": "it:Frattini (metropolitana di Milano)"}}, {"type": "node", "id": 11705098347, "lat": 45.4536909, "lon": 9.1480612, "tags": {"description": "Area STIBM: Mi1", "name": "Tolstoj", "network": "STIBM", "network:wikidata": "Q65125405", "operator": "ATM", "operator:wikidata": "Q381955", "public_transport": "station", "railway": "station", "start_date": "2024-10-12", "station": "subway", "subway": "yes", "train": "yes", "wheelchair": "yes", "wikidata": "Q23018017", "wikipedia": "it:Tolstoj (metropolitana di Milano)"}}, {"type": "node", "id": 11705098348, "lat": 45.455343, "lon": 9.1531255, "tags": {"description": "Area STIBM: Mi1", "name": "Bolivar", "network": "STIBM", "network:wikidata": "Q65125405", "operator": "ATM", "operator:wikidata": "Q381955", "public_transport": "station", "railway": "station", "start_date": "2024-10-12", "station": "subway", "subway": "yes", "train": "yes", "wikidata": "Q23018014", "wikipedia": "it:Bolivar (metropolitana di Milano)"}}, {"type": "node", "id": 11705098349, "lat": 45.4577548, "lon": 9.1606657, "tags": {"description": "Area STIBM: Mi1", "name": "California", "network": "STIBM", "network:wikidata": "Q65125405", "operator": "ATM", "operator:wikidata": "Q381955", "public_transport": "station", "railway": "station", "start_date": "2024-10-12", "station": "subway", "train": "yes", "wikidata": "Q23017983", "wikipedia": "it:California (metropolitana di Milano)"}}, {"type": "node", "id": 11705098350, "lat": 45.4591563, "lon": 9.1650741, "tags": {"description": "Area STIBM: Mi1", "name": "Coni Zugna", "network": "STIBM", "network:wikidata": "Q65125405", "operator": "ATM", "operator:wikidata": "Q381955", "public_transport": "station", "railway": "station", "start_date": "2024-10-12", "station": "subway", "subway": "yes", "train": "yes", "wheelchair": "yes", "wikidata": "Q22806959", "wikipedia": "it:Coni Zugna (metropolitana di Milano)"}}, {"type": "node", "id": 11731029093, "lat": 45.5199175, "lon": 9.319076, "tags": {"name": "Cernusco Melghera", "operator": "ATM", "proposed": "station", "railway": "proposed", "station": "subway", "subway": "yes"}}, {"type": "node", "id": 11731029095, "lat": 45.5476093, "lon": 9.3072019, "tags": {"name": "Brugherio", "operator": "ATM", "proposed": "station", "railway": "proposed", "station": "subway", "subway": "yes"}}, {"type": "way", "id": 935809107, "nodes": [8671865626, 8671865634, 8671865639, 8671865633, 8671865627, 8671865628, 8671865629, 8671865630, 8671865626], "tags": {"building": "yes", "name": "Kiss&Ride M4", "public_transport": "station", "railway": "station", "station": "subway", "subway": "yes"}}, {"type": "way", "id": 935809109, "nodes": [8671865635, 8671865636, 8671865637, 8671865638, 8671865635], "tags": {"building": "transportation", "building:levels:underground": "2", "building:use": "transportation", "min_level": "-2", "name": "Mezzanino M4", "public_transport": "station", "railway": "station", "station": "subway", "subway": "yes", "wikimedia_commons": "File:Mezzanino Linate M4.jpg"}}]}